{
"type": "FeatureCollection",
"name": "huize_boundary",
"crs": { "type": "name", "properties": { "name": "urn:ogc:def:crs:OGC:1.3:CRS84" } },
"features": [
{ "type": "Feature", "properties": { "GID_3": "CHN.30.12.2_1", "GID_0": "CHN", "COUNTRY": "China", "GID_1": "CHN.30_1", "NAME_1": "Yunnan", "NL_NAME_1": "雲南|云南", "GID_2": "CHN.30.12_1", "NAME_2": "Qujing", "NL_NAME_2": "曲靖市", "NAME_3": "Huize", "VARNAME_3": "Huìzé", "NL_NAME_3": "会泽县", "TYPE_3": "Xiàn", "ENGTYPE_3": "County", "CC_3": "NA", "HASC_3": "NA" }, "geometry": { "type": "MultiPolygon", "coordinates": [ [ [ [ 103.614524842000094, 27.008733750000033 ], [ 103.618110658000148, 27.012535095000032 ], [ 103.645019531000059, 27.024570465000068 ], [ 103.667732237999985, 27.05016136100005 ], [ 103.676147460000095, 27.052413941000054 ], [ 103.698005677000083, 27.051637650000032 ], [ 103.724037171000077, 27.028253555000163 ], [ 103.72906494199998, 27.011674880000044 ], [ 103.741638184000067, 26.986799240000096 ], [ 103.745811462000063, 26.970222473000092 ], [ 103.753364563000162, 26.962678908999976 ], [ 103.765960694000114, 26.960395812000172 ], [ 103.774353027000188, 26.954355239000165 ], [ 103.773490906000177, 26.941551209000181 ], [ 103.759178161000136, 26.918975831000125 ], [ 103.759162903000117, 26.909936905000052 ], [ 103.762512207000157, 26.904657365000048 ], [ 103.773391724000135, 26.882793426000148 ], [ 103.772537232000161, 26.875261308000063 ], [ 103.762458802000083, 26.868497848 ], [ 103.718788148000044, 26.854999543000076 ], [ 103.717933655000138, 26.842948914000146 ], [ 103.707008361000135, 26.832416535000107 ], [ 103.700279236000142, 26.821123123 ], [ 103.699432372999979, 26.809070586000132 ], [ 103.713661193000121, 26.78268432700014 ], [ 103.722839355000133, 26.741239548000181 ], [ 103.730369568000128, 26.730682372999979 ], [ 103.743789672000105, 26.730663300000117 ], [ 103.75973510700004, 26.738925934000065 ], [ 103.763084411000023, 26.738920212000096 ], [ 103.765602112000067, 26.735904693000066 ], [ 103.763038634000054, 26.710294723000118 ], [ 103.755470277000143, 26.692222596000079 ], [ 103.75626373200015, 26.662841797000112 ], [ 103.75289154100011, 26.650791169000115 ], [ 103.743652343000178, 26.635738374000141 ], [ 103.744476319000171, 26.626697540000123 ], [ 103.760368347000053, 26.611604691000025 ], [ 103.763710023000101, 26.601804733999984 ], [ 103.762840270000197, 26.584476472000119 ], [ 103.774551391000102, 26.575416565000069 ], [ 103.803840636000075, 26.563310623000064 ], [ 103.809684753, 26.555767059000118 ], [ 103.811325074000138, 26.539188385000102 ], [ 103.823036193000178, 26.535396577000085 ], [ 103.828834535000169, 26.532152175000022 ], [ 103.835998535000101, 26.529439926000066 ], [ 103.843429566000111, 26.528169633000061 ], [ 103.850112915000182, 26.526199341000108 ], [ 103.857292176000101, 26.524698258000171 ], [ 103.860870361000138, 26.524751663000018 ], [ 103.869323730000133, 26.523723603000064 ], [ 103.878837585000099, 26.520418168000049 ], [ 103.888824463000049, 26.519411088000027 ], [ 103.894973754000034, 26.518581391000055 ], [ 103.898551942000154, 26.518171310000128 ], [ 103.903915405000077, 26.518474579000099 ], [ 103.911285401000043, 26.521324158000027 ], [ 103.906066894000048, 26.512088775000166 ], [ 103.902702331000057, 26.499666215000104 ], [ 103.894134522000058, 26.492443084000115 ], [ 103.887359620000097, 26.485242844000027 ], [ 103.886497497000107, 26.475376129000153 ], [ 103.88336181700015, 26.464561463000052 ], [ 103.875892640000075, 26.453226089000111 ], [ 103.869148254000152, 26.444194793000179 ], [ 103.863372803000061, 26.438613892000149 ], [ 103.853996276000032, 26.434356690000186 ], [ 103.845619201000147, 26.431255342000043 ], [ 103.835182190000182, 26.429502487000093 ], [ 103.828491211000141, 26.432155609 ], [ 103.821540833000086, 26.435266495 ], [ 103.811843871000121, 26.434667587000035 ], [ 103.803443908000133, 26.433170319000169 ], [ 103.792625428000122, 26.438285829000108 ], [ 103.785881042000199, 26.444145203000119 ], [ 103.779327392000084, 26.453674317000036 ], [ 103.77616119400011, 26.459358216000055 ], [ 103.769927979000158, 26.464765550000152 ], [ 103.762748718000068, 26.466493606000142 ], [ 103.750816346000079, 26.462419510000018 ], [ 103.742683410000041, 26.459777831000054 ], [ 103.734626770000091, 26.453695298000127 ], [ 103.733703614000092, 26.447954177000156 ], [ 103.73667907700019, 26.439062118000095 ], [ 103.739105225, 26.431762696000135 ], [ 103.740501403000053, 26.425367356000152 ], [ 103.735527038000157, 26.417957306000062 ], [ 103.728492738000057, 26.411895752000135 ], [ 103.71940612700007, 26.40579795900004 ], [ 103.709823608000079, 26.399463655000147 ], [ 103.700744630000145, 26.3931407930001 ], [ 103.68943023700001, 26.383798599000045 ], [ 103.681648255000084, 26.376802445000067 ], [ 103.675872802000129, 26.371673585000053 ], [ 103.671394347000046, 26.365413667000098 ], [ 103.66791534400005, 26.360548019000078 ], [ 103.665718079000044, 26.355241775000138 ], [ 103.666336060000106, 26.349294664000183 ], [ 103.670295716000169, 26.342247009000175 ], [ 103.677589417000149, 26.334568024000134 ], [ 103.682838441000115, 26.326856613000075 ], [ 103.684982299000069, 26.321159363000106 ], [ 103.68334961000005, 26.313112259000036 ], [ 103.678916932000106, 26.304336547000105 ], [ 103.675987243000122, 26.297414780000054 ], [ 103.672790528000178, 26.2909488680001 ], [ 103.669799805000082, 26.287233353000033 ], [ 103.665298462000067, 26.282350540000095 ], [ 103.660316468000133, 26.276082993000102 ], [ 103.654556273000026, 26.270265580000057 ], [ 103.650817871000186, 26.2658519740001 ], [ 103.649650573000031, 26.260101319000114 ], [ 103.647750854000151, 26.252510071000131 ], [ 103.643882751000149, 26.241678238000134 ], [ 103.644058227000073, 26.232282638000072 ], [ 103.650825501000099, 26.224826814000096 ], [ 103.659088135000047, 26.219453812000154 ], [ 103.665306092000151, 26.214277267000057 ], [ 103.667968749000124, 26.207901001000039 ], [ 103.666648865000127, 26.1968803420001 ], [ 103.661468505000187, 26.187860489000116 ], [ 103.655738831, 26.180894853000041 ], [ 103.647697449000077, 26.174810410000134 ], [ 103.634567261000143, 26.168415070000151 ], [ 103.628005982, 26.164873124000167 ], [ 103.622741700000176, 26.160207748000175 ], [ 103.619224548000147, 26.157630920000145 ], [ 103.613677978000055, 26.154561996000041 ], [ 103.60786438000008, 26.152177810000126 ], [ 103.60230255200014, 26.149795533000088 ], [ 103.596305846000064, 26.143741607000152 ], [ 103.59493255700005, 26.135927201000129 ], [ 103.594078064000144, 26.127202987000032 ], [ 103.593963624000082, 26.120096206000085 ], [ 103.596160889000089, 26.111650468000107 ], [ 103.599639892000084, 26.102996827000084 ], [ 103.600540162000129, 26.095905305000031 ], [ 103.601661682000042, 26.090650559000096 ], [ 103.601959229000045, 26.088365555000053 ], [ 103.593933105000133, 26.082046509000179 ], [ 103.588737489000152, 26.074169159000121 ], [ 103.583496093000065, 26.069044114000178 ], [ 103.57440948500016, 26.065000535000024 ], [ 103.566085815000179, 26.060739517000059 ], [ 103.559516907000045, 26.058111192000126 ], [ 103.553718568000136, 26.055267334000177 ], [ 103.546318054000153, 26.056293487000119 ], [ 103.541679382000041, 26.0589656840001 ], [ 103.539604187, 26.060766221000165 ], [ 103.533523559000173, 26.059291840000128 ], [ 103.522735596000075, 26.051322936000133 ], [ 103.515670775000046, 26.048225403000117 ], [ 103.50762176500001, 26.043277741000168 ], [ 103.504432678000057, 26.037492753000095 ], [ 103.509414672000105, 26.030012130000102 ], [ 103.515441894000048, 26.02140045200008 ], [ 103.520195007000098, 26.012998581000033 ], [ 103.523612977000084, 26.007556915000123 ], [ 103.526039124000022, 26.000717163000161 ], [ 103.526939393000191, 25.993627548000177 ], [ 103.529594422000059, 25.988399505000075 ], [ 103.534767150000107, 25.984128952000106 ], [ 103.54187011800019, 25.985162736000063 ], [ 103.553268432000039, 25.987642289000121 ], [ 103.561111450000055, 25.990060806000145 ], [ 103.567962646000126, 25.991088866000098 ], [ 103.574066162000122, 25.991188049000073 ], [ 103.579689025, 25.989673615000129 ], [ 103.583351134000054, 25.984691619000046 ], [ 103.58422851500012, 25.978973389000146 ], [ 103.579620362000128, 25.967210770000065 ], [ 103.570465088000049, 25.953996658000108 ], [ 103.559532165000064, 25.940753937000125 ], [ 103.551109312999984, 25.929616928000144 ], [ 103.543472290000068, 25.917112350000025 ], [ 103.540260315000126, 25.912244797000085 ], [ 103.540351867000084, 25.907432556000117 ], [ 103.543258668000135, 25.901979446000098 ], [ 103.544158935000098, 25.894889831000171 ], [ 103.541511536000201, 25.887510300000031 ], [ 103.537590027000192, 25.880111694000163 ], [ 103.535705566000104, 25.872516632000043 ], [ 103.535087585000042, 25.865400314000112 ], [ 103.534759522000172, 25.856225967000114 ], [ 103.535423278000053, 25.848213196000188 ], [ 103.537117005000084, 25.839990616000023 ], [ 103.538009644000169, 25.833356857000126 ], [ 103.535942078000176, 25.827884674000018 ], [ 103.531150818000015, 25.824407578000091 ], [ 103.531967164000093, 25.817672730000083 ], [ 103.526687622000054, 25.814603806000036 ], [ 103.521408081000118, 25.811994554000137 ], [ 103.516624450000165, 25.809623718000068 ], [ 103.509277343000065, 25.808815002000131 ], [ 103.504669190000072, 25.810571670000172 ], [ 103.498222350000106, 25.81504821700014 ], [ 103.493522645000155, 25.821388244000048 ], [ 103.489669799000069, 25.823616028000174 ], [ 103.480529786000091, 25.823003770000128 ], [ 103.474449158000027, 25.822212219999983 ], [ 103.469764709000117, 25.827634812000156 ], [ 103.467643737000174, 25.832183838000105 ], [ 103.468544007000048, 25.837701798000182 ], [ 103.469978332000153, 25.842079163000051 ], [ 103.471458436000034, 25.844396592000066 ], [ 103.473388671000123, 25.849472045000141 ], [ 103.474800110000103, 25.854997634000028 ], [ 103.472343444999979, 25.863437652000073 ], [ 103.466606141000113, 25.870447158000047 ], [ 103.461738586000138, 25.872198105000052 ], [ 103.456665040000132, 25.871652604000133 ], [ 103.452377319000163, 25.870206834000044 ], [ 103.448623658000201, 25.867389680000031 ], [ 103.443389893000131, 25.862258912000073 ], [ 103.438652038999976, 25.857822419000058 ], [ 103.434677125000064, 25.853399277 ], [ 103.430725097000106, 25.847827911000024 ], [ 103.423515319000103, 25.839912415000185 ], [ 103.416229248000036, 25.836116792000098 ], [ 103.408905030000142, 25.833929062000095 ], [ 103.401794434000124, 25.833576203000121 ], [ 103.391036987000064, 25.837514877000046 ], [ 103.384529115000021, 25.844963074000191 ], [ 103.3782501230001, 25.853336334000062 ], [ 103.375915527000188, 25.855815887000119 ], [ 103.369789124000192, 25.85685539300016 ], [ 103.361137391000113, 25.857391358000029 ], [ 103.350967407000098, 25.857437133000133 ], [ 103.343788146000179, 25.860292435000133 ], [ 103.335266114000092, 25.86655807600016 ], [ 103.330696105000072, 25.866247176000172 ], [ 103.327453613000046, 25.863668443000051 ], [ 103.325210571000071, 25.861335754000038 ], [ 103.320228577000137, 25.856662750000112 ], [ 103.314170838000109, 25.854946137000127 ], [ 103.308059692000029, 25.8552970880001 ], [ 103.301605224000127, 25.859992981000062 ], [ 103.296379089000197, 25.866317749000075 ], [ 103.291931153000064, 25.872194289999982 ], [ 103.289764404000096, 25.878347398000187 ], [ 103.290122986000085, 25.885232926000072 ], [ 103.29177856400014, 25.890760422000142 ], [ 103.295951844000115, 25.89771461600003 ], [ 103.300064087000067, 25.907186509000098 ], [ 103.302688598000088, 25.915256500000169 ], [ 103.302284241000109, 25.922126770000148 ], [ 103.298812866000048, 25.929626466000059 ], [ 103.297103881000112, 25.938077927000052 ], [ 103.298736572000109, 25.944755555000086 ], [ 103.299865723000039, 25.951194764000093 ], [ 103.299995422000165, 25.956926345000113 ], [ 103.298095702000012, 25.962394714000027 ], [ 103.293663025000171, 25.967359544000146 ], [ 103.290275573000201, 25.971193314000061 ], [ 103.28683471700009, 25.977090835000183 ], [ 103.28385925300006, 25.985286712000175 ], [ 103.280616761000033, 25.993709564000028 ], [ 103.277870177000125, 25.999818803000039 ], [ 103.277137755000126, 26.001440049000109 ], [ 103.282623292000039, 26.006582260000016 ], [ 103.28610992300014, 26.010084152000047 ], [ 103.291831971000192, 26.016147613000044 ], [ 103.299285888000099, 26.024305343000151 ], [ 103.305473328000119, 26.032438279000189 ], [ 103.310401916000046, 26.039865494000026 ], [ 103.312011719000111, 26.047916412000177 ], [ 103.311065675000179, 26.056150437000156 ], [ 103.307815553000182, 26.065261842000041 ], [ 103.303596497000171, 26.071832657000073 ], [ 103.295310974000188, 26.078102111000135 ], [ 103.286750793000067, 26.085281372000054 ], [ 103.278190612000117, 26.092460632000041 ], [ 103.270629883000083, 26.100116730000082 ], [ 103.26127624500009, 26.108655930000111 ], [ 103.257240295000145, 26.118438721000189 ], [ 103.254226684000116, 26.12778091399997 ], [ 103.253341675000115, 26.133037568000077 ], [ 103.252685547000056, 26.139669418999972 ], [ 103.2509613040001, 26.148578644000054 ], [ 103.248161315000175, 26.159990311 ], [ 103.247924804000036, 26.17052841200001 ], [ 103.247711181000057, 26.179924012000072 ], [ 103.246009827000137, 26.187685013000191 ], [ 103.240768433000085, 26.194236756 ], [ 103.236183165999989, 26.205381393000152 ], [ 103.23549652100013, 26.213163375000079 ], [ 103.233558655000195, 26.220233916000041 ], [ 103.229393005000134, 26.223823547000165 ], [ 103.223442077000186, 26.227611542000147 ], [ 103.217071533000137, 26.227722167000138 ], [ 103.20821380600006, 26.224576950000028 ], [ 103.19838714500014, 26.219348907000096 ], [ 103.189399719000107, 26.21115875300012 ], [ 103.183410645000151, 26.205543518000127 ], [ 103.178085326000144, 26.204069139000069 ], [ 103.17294311500001, 26.206035613999973 ], [ 103.165115356000115, 26.213909150000063 ], [ 103.159080506000123, 26.221359254000106 ], [ 103.154800415000125, 26.229988098000149 ], [ 103.151977540000019, 26.241853714000115 ], [ 103.149017334000064, 26.248674394000091 ], [ 103.143554688000165, 26.253152847000024 ], [ 103.134849548000034, 26.254590989000178 ], [ 103.127716064000083, 26.254224777000047 ], [ 103.119834899000182, 26.253158569000107 ], [ 103.109863282000163, 26.254337312000018 ], [ 103.102302550000047, 26.26129913300008 ], [ 103.101684571000135, 26.266826630000082 ], [ 103.104919433000134, 26.293207168000038 ], [ 103.101486207000107, 26.316553117000183 ], [ 103.096450806000121, 26.321813584000154 ], [ 103.093048096000132, 26.336120606000122 ], [ 103.093749999000181, 26.369274140000073 ], [ 103.085296631000119, 26.391851426000073 ], [ 103.07839965800008, 26.440803527000071 ], [ 103.071601869000119, 26.465646744000082 ], [ 103.056350709000185, 26.507789611000078 ], [ 103.054595947000109, 26.527372361000175 ], [ 103.056442261000086, 26.538209916000085 ], [ 103.06059265100015, 26.542646409000042 ], [ 103.063552857000104, 26.548660279000103 ], [ 103.063423156000113, 26.554161071000124 ], [ 103.059646606000115, 26.562341690000096 ], [ 103.056411742000137, 26.569150924000041 ], [ 103.055732728000123, 26.576242446000094 ], [ 103.057357789000037, 26.583150865000164 ], [ 103.061454773000094, 26.593545914 ], [ 103.061904906999985, 26.606620789000146 ], [ 103.065521241000113, 26.615858078000144 ], [ 103.072586060000106, 26.619890214000179 ], [ 103.083847045000084, 26.619882584000095 ], [ 103.095123291000107, 26.618957520000095 ], [ 103.103721619000112, 26.623247146000097 ], [ 103.106605528999978, 26.631095886000082 ], [ 103.110588073000201, 26.635986328000058 ], [ 103.116424562000191, 26.637933732000079 ], [ 103.122833252000021, 26.637367248000089 ], [ 103.131065368000122, 26.635690689 ], [ 103.145156861000146, 26.634584427000163 ], [ 103.153823852000016, 26.636123657000155 ], [ 103.159538269000052, 26.632337570000118 ], [ 103.164772035000055, 26.627393723000068 ], [ 103.167694092000147, 26.622865678000153 ], [ 103.176528931000064, 26.616842271000166 ], [ 103.188072204000093, 26.615455628000063 ], [ 103.195426941000164, 26.618116378000138 ], [ 103.202751160000162, 26.622375488000102 ], [ 103.207962036000197, 26.629577638000058 ], [ 103.21260833700012, 26.639060975000177 ], [ 103.217247009000062, 26.648771287000159 ], [ 103.219596864000096, 26.657983781000155 ], [ 103.216621399000189, 26.665262222000138 ], [ 103.215385437000066, 26.674409866000076 ], [ 103.217819213000155, 26.679954529000099 ], [ 103.223304748000089, 26.686471939000057 ], [ 103.232818603000055, 26.695816039000135 ], [ 103.234481811000194, 26.70157432600007 ], [ 103.232482910000101, 26.710708619000116 ], [ 103.234359741000048, 26.718303680000133 ], [ 103.242172242000152, 26.723947525000028 ], [ 103.25233459500015, 26.72734260600015 ], [ 103.264587402000075, 26.729400635000161 ], [ 103.277839661000087, 26.731931687000156 ], [ 103.288360596000132, 26.731203080000171 ], [ 103.300437927000132, 26.729129792000037 ], [ 103.310012818000189, 26.724489213000084 ], [ 103.320350647000112, 26.720319748000122 ], [ 103.331130981000172, 26.719135284000174 ], [ 103.342887879000045, 26.71980476300007 ], [ 103.354141236000089, 26.720687867000152 ], [ 103.36460113600009, 26.722246170000176 ], [ 103.371261596000124, 26.722133637000184 ], [ 103.380241394000109, 26.72137260400001 ], [ 103.387603759000058, 26.724250794000113 ], [ 103.391059876000099, 26.730499267000141 ], [ 103.393211364000138, 26.737411498000142 ], [ 103.395324706, 26.74661636400009 ], [ 103.395133972000053, 26.755550386000152 ], [ 103.391136170000038, 26.762815476000128 ], [ 103.38394165, 26.764064790000134 ], [ 103.374931335000099, 26.766199112000152 ], [ 103.366218567000089, 26.766506194000158 ], [ 103.356964111000138, 26.767948152000088 ], [ 103.350990296000134, 26.771738052000103 ], [ 103.348526001000096, 26.779029846000185 ], [ 103.349433898000143, 26.784545898999966 ], [ 103.352416993000134, 26.788722993000079 ], [ 103.357933044000106, 26.79431915300006 ], [ 103.364990234000118, 26.799715043000106 ], [ 103.373085021000122, 26.804439544000104 ], [ 103.379631043000131, 26.81005478000003 ], [ 103.383361816000161, 26.815391540000178 ], [ 103.386283875000117, 26.822544098000094 ], [ 103.387145995000196, 26.830350876000125 ], [ 103.388992309, 26.839780808 ], [ 103.391349792000142, 26.84944534300007 ], [ 103.394767762000129, 26.857524872 ], [ 103.399078369, 26.871805191000192 ], [ 103.404243469000164, 26.882207871000105 ], [ 103.409111022000104, 26.894666672000028 ], [ 103.414215088, 26.907819748000122 ], [ 103.41854095399998, 26.921638489000145 ], [ 103.42449188300003, 26.931596755000044 ], [ 103.429435729000033, 26.940387727000029 ], [ 103.433807374000139, 26.952377319000107 ], [ 103.434356690000129, 26.962699890000067 ], [ 103.43131256200013, 26.973419190000186 ], [ 103.426979064000079, 26.984115601000155 ], [ 103.425010682000106, 26.992561340000066 ], [ 103.423057556000117, 27.00008964500006 ], [ 103.424049377000017, 27.003175737000163 ], [ 103.433219909000115, 26.995201111000085 ], [ 103.440788269000166, 26.992195130000141 ], [ 103.457588196000131, 26.992958068000178 ], [ 103.483634949000077, 27.007280349000155 ], [ 103.494560241000045, 27.005777359000092 ], [ 103.508850098000153, 26.996742248000146 ], [ 103.550872802000072, 27.00427436800004 ], [ 103.560958862000064, 27.002765655000132 ], [ 103.576927185000102, 26.990709305000053 ], [ 103.587013245000094, 26.990705490000153 ], [ 103.599617004000152, 26.992959976000179 ], [ 103.614524842000094, 27.008733750000033 ] ] ] ] } }
]
}
